SJ-11-01                
1 36088U 09061A   26159.52701978  .00000421  00000+0  89725-4 0  9994
2 36088  98.0054 140.7591 0012234  53.7027  93.9580 14.63682329883227
COSMOS 2455             
1 36095U 09063A   26159.48298002 -.00000036  00000+0  27812-4 0  9990
2 36095  67.1485 274.0672 0003458 260.4588  99.6106 13.97050045843917
INTELSAT 14 (IS-14)     
1 36097U 09064A   26159.26349325 -.00000258  00000+0  00000+0 0  9995
2 36097   0.0150 335.8760 0002803 117.4459 213.2034  1.00270969 60510
EUTELSAT 36B            
1 36101U 09065A   26159.49633808  .00000128  00000+0  00000+0 0  9994
2 36101   0.4682  81.0117 0006062 355.2665  49.7762  1.00270820 60626
INTELSAT 15 (IS-15)     
1 36106U 09067A   26159.50318477 -.00000169  00000+0  00000+0 0  9991
2 36106   0.0124 329.2573 0002286 111.0886  82.8468  1.00271434 41147
WGS F3 (USA 211)        
1 36108U 09068A   26159.46785190  .00000080  00000+0  00000+0 0  9990
2 36108   0.3345  85.8076 0000338  28.2389 181.2633  1.00269461 46503
YAOGAN-7                
1 36110U 09069A   26159.42323208  .00000520  00000+0  79015-4 0  9994
2 36110  98.0083  45.3441 0025957  68.7505 291.6475 14.78001090888335
COSMOS 2456 [GLONASS-M] 
1 36111U 09070A   26156.36211172 -.00000011  00000+0  00000+0 0  9992
2 36111  65.0050  71.3748 0005034 326.0196 218.4437  2.13103930128179
COSMOS 2457 [GLONASS-M] 
1 36112U 09070B   26159.42837878 -.00000019  00000+0  00000+0 0  9998
2 36112  64.9920  71.1146 0002449 127.6857  16.6154  2.13101383128242
YAOGAN-8                
1 36121U 09072A   26159.52639743  .00000286  00000+0  10116-2 0  9999
2 36121 100.2184  44.4953 0020950 345.6925  14.3586 13.05078514787542
XIWANG-1 (HOPE-1)       
1 36122U 09072B   26159.50398267 -.00000117  00000+0 -19076-3 0  9991
2 36122 100.4026 113.4750 0006793 253.9299 106.1066 13.16439073791862
DIRECTV 12              
1 36131U 09075A   26159.46299448 -.00000087  00000+0  00000+0 0  9998
2 36131   0.0438 143.8857 0000324 286.9865 249.9377  1.00270319 46464
BEIDOU-2 G1             
1 36287U 10001A   26159.51411346 -.00000264  00000+0  00000+0 0  9997
2 36287   4.2723  60.4329 0002679 306.6691 215.3404  1.00274524 60083
SDO                     
1 36395U 10005A   26159.32339038 -.00000060  00000+0  00000+0 0  9991
2 36395  34.6325  86.4781 0001516  53.0773 131.5755  1.00270840 59972
INTELSAT 16 (IS-16)     
1 36397U 10006A   26159.32859042 -.00000229  00000+0  00000+0 0  9993
2 36397   0.0113 313.3517 0002161 141.4643 204.0108  1.00270005 59566
COSMOS 2460 [GLONASS-M] 
1 36402U 10007C   26156.93373906 -.00000030  00000+0  00000+0 0  9995
2 36402  65.4275 314.8474 0002122 103.7485 288.7249  2.13101712126492
EWS-G2 (GOES 15)        
1 36411U 10008A   26159.49893808  .00000035  00000+0  00000+0 0  9992
2 36411   1.2528  83.0061 0005476  38.2868  18.8165  1.00275841 59551
YAOGAN-9 01A            
1 36413U 10009A   26159.35685873  .00000020  00000+0  78339-4 0  9990
2 36413  63.3659  21.0705 0536671  21.6861 340.5985 13.45702091798783
YAOGAN-9 01B            
1 36414U 10009B   26159.41101589 -.00000002  00000+0  62636-4 0  9999
2 36414  63.3673  20.5687 0537514  20.8511 341.3557 13.45709887798563
YAOGAN-9 01C            
1 36415U 10009C   26159.40930661  .00000009  00000+0  70242-4 0  9998
2 36415  63.3669  21.0854 0538199  21.1818 341.0598 13.45711443798726
ECHOSTAR 14             
1 36499U 10010A   26159.46276926  .00000016  00000+0  00000+0 0  9993
2 36499   0.0469  90.6638 0002462   3.6032 210.2851  1.00272048 46465
CRYOSAT 2               
1 36508U 10013A   26159.53539641  .00000144  00000+0  34937-4 0  9994
2 36508  92.0348 275.1990 0002225  86.2057 273.9405 14.51896687856826
SES-1                   
1 36516U 10016A   26159.46632262 -.00000099  00000+0  00000+0 0  9990
2 36516   0.0151 321.1589 0002775 118.0488 244.5331  1.00271743 58943
COSMOS 2463             
1 36519U 10017A   26159.36480941  .00000051  00000+0  38832-4 0  9994
2 36519  82.9608 256.1872 0036894 152.7015 273.6741 13.71665190806723
ASTRA 3B                
1 36581U 10021A   26159.34817719  .00000153  00000+0  00000+0 0  9997
2 36581   1.4479  83.6606 0004470 351.9180 330.0017  1.00274280 58776
COMSATBW-2              
1 36582U 10021B   26159.27501999  .00000104  00000+0  00000+0 0  9996
2 36582   0.0214  33.8866 0002716  57.0974 277.8925  1.00269942 58865
NAVSTAR 65 (USA 213)    
1 36585U 10022A   26157.59368922  .00000048  00000+0  00000+0 0  9997
2 36585  54.2711 208.9889 0126253  66.1149  10.1649  2.00561961117380
SERVIS 2                
1 36588U 10023A   26159.47394924  .00000003  00000+0  12670-3 0  9992
2 36588 100.4282 347.3103 0016709 295.7871 128.3047 13.16052891769623
BEIDOU-2 G3             
1 36590U 10024A   26159.35951406 -.00000121  00000+0  00000+0 0  9999
2 36590   4.4940  61.5520 0008405 350.9162  53.4094  1.00272900 58681
BADR-5                  
1 36592U 10025A   26159.27848667  .00000170  00000+0  00000+0 0  9990
2 36592   0.0630 115.0337 0003452  66.9105 205.5484  1.00278136 53124
SJ-12                   
1 36596U 10027A   26159.48321010  .00004492  00000+0  23310-3 0  9991
2 36596  97.7623 176.9692 0008112 120.6709 239.5323 15.16643491873546
